QIANFAN-81              
1 63167U 25046J   25268.27769420  .00000251  00000+0  36994-3 0  9991
2 63167  88.9830 327.9840 0013845 356.3767   3.7282 13.50980029 36897
QIANFAN-82              
1 63168U 25046K   25268.31063765  .00000239  00000+0  35099-3 0  9997
2 63168  88.9830 328.0242 0012326   5.8995 354.2299 13.50967685 36882
QIANFAN-83              
1 63169U 25046L   25268.30913728  .00000263  00000+0  32595-3 0  9995
2 63169  88.9827 327.9545 0013183 354.1626   5.9375 13.61954507 36927
QIANFAN-84              
1 63170U 25046M   25268.26514622  .00000213  00000+0  31121-3 0  9991
2 63170  88.9830 328.1619 0015118   0.2729 359.8428 13.50981110 36806
QIANFAN-85              
1 63171U 25046N   25268.26130388  .00000250  00000+0  36825-3 0  9992
2 63171  88.9829 328.0343 0012629   4.6461 355.4805 13.50977933 36879
QIANFAN-86              
1 63172U 25046P   25268.26951970  .00000256  00000+0  37770-3 0  9997
2 63172  88.9832 327.8938 0010710  11.0230 349.1154 13.50978404 36956
QIANFAN-87              
1 63173U 25046Q   25268.31480316  .00000230  00000+0  33842-3 0  9993
2 63173  88.9825 328.0036 0011198   4.8846 355.2413 13.50974140 36897
QIANFAN-88              
1 63174U 25046R   25268.25716986  .00000227  00000+0  33264-3 0  9996
2 63174  88.9830 327.9621 0011914  12.9222 347.2232 13.50967358 36912
